      2.10          N: GNSS NAV DATA                        RINEX VERSION / TYPE
fic2rin                                 11/16/2019 00:19:24 PGM / RUN BY / DATE
                                                            END OF HEADER
 2 19 11 15 12  0  0.0-3.472082316875e-04-7.730704965070e-12 0.000000000000e+00
    1.500000000000e+01-1.293125000000e+02 4.250177036933e-09-2.865976036229e+00
   -6.571412086487e-06 1.937356253620e-02 1.025199890137e-05 5.153585535049e+03
    4.752000000000e+05 3.483146429062e-07 2.237183096684e-01 3.725290298462e-08
    9.571733123047e-01 1.719375000000e+02-1.700729809629e+00-7.599959425958e-09
    1.296482575132e-10 1.000000000000e+00 2.079000000000e+03 0.000000000000e+00
    2.400000000000e+00 0.000000000000e+00-1.769512891769e-08 1.500000000000e+01
    4.680000000000e+05 4.000000000000e+00
 1 19 11 15 12  0  0.0-1.980136148632e-04-1.261923898710e-11 0.000000000000e+00
    1.080000000000e+02-9.637500000000e+01 3.863018053065e-09 3.122107731702e+00
   -5.079433321953e-06 9.153658524156e-03 1.013278961182e-05 5.153649383545e+03
    4.752000000000e+05-5.401670932770e-08 2.959614688289e-01-1.564621925354e-07
    9.780883331679e-01 1.930937500000e+02 7.638573281238e-01-7.502098206789e-09
    1.360770967287e-10 1.000000000000e+00 2.079000000000e+03 0.000000000000e+00
    2.400000000000e+00 0.000000000000e+00 5.587935447693e-09 1.080000000000e+02
    4.680000000000e+05 4.000000000000e+00
 3 19 11 15 12  0  0.0-3.703590482473e-05-5.798028723802e-12 0.000000000000e+00
    1.800000000000e+01 8.875000000000e+00 4.597691512306e-09 1.947361157100e+00
    3.986060619354e-07 2.613182063214e-03 8.085742592812e-06 5.153669790268e+03
    4.752000000000e+05-1.117587089539e-07 1.337343006824e+00-3.911554813385e-08
    9.637263177894e-01 2.240625000000e+02 7.899218674393e-01-7.924615806343e-09
    4.746626287466e-10 1.000000000000e+00 2.079000000000e+03 0.000000000000e+00
    2.400000000000e+00 0.000000000000e+00 2.328306436539e-09 1.800000000000e+01
    4.680000000000e+05 4.000000000000e+00
 5 19 11 15 12  0  0.0-3.483146429062e-06-4.547473508865e-13 0.000000000000e+00
    9.700000000000e+01 1.025000000000e+01 4.992707966327e-09-3.165731375362e-01
    5.904585123062e-07 5.842379177921e-03 8.197501301765e-06 5.153541887283e+03
    4.752000000000e+05-1.862645149231e-08 1.308119152551e+00 9.126961231232e-08
    9.506274136761e-01 2.145312500000e+02 8.020732000139e-01-8.206770416358e-09
    4.964492505326e-10 1.000000000000e+00 2.079000000000e+03 0.000000000000e+00
    2.400000000000e+00 0.000000000000e+00-1.117587089539e-08 9.700000000000e+01
    4.680000000000e+05 4.000000000000e+00
 7 19 11 15 12  0  0.0-1.492677256465e-04-8.185452315956e-12 0.000000000000e+00
    8.300000000000e+01 5.750000000000e+01 4.283035548479e-09 2.443906495384e+00
    2.827495336533e-06 1.317964599002e-02 1.099891960621e-05 5.153727624893e+03
    4.752000000000e+05-1.024454832077e-07-2.839125924534e+00-1.993030309677e-07
    9.547885598045e-01 1.631875000000e+02-2.423667882490e+00-7.667462237722e-09
   -3.325138505366e-10 1.000000000000e+00 2.079000000000e+03 0.000000000000e+00
    2.400000000000e+00 0.000000000000e+00-1.117587089539e-08 8.300000000000e+01
    4.680000000000e+05 4.000000000000e+00
22 19 11 15 12  0  0.0-7.717828266323e-04-2.614797267597e-12 0.000000000000e+00
    1.900000000000e+01 1.284375000000e+01 5.327007605535e-09-1.910015196280e+00
    7.562339305878e-07 6.858380394988e-03 8.106231689453e-06 5.153650180817e+03
    4.752000000000e+05-3.911554813385e-08 1.257946055371e+00 1.452863216400e-07
    9.284975856399e-01 2.044375000000e+02-1.262923277184e+00-8.258915445550e-09
    4.760912596834e-10 1.000000000000e+00 2.079000000000e+03 0.000000000000e+00
    2.400000000000e+00 0.000000000000e+00-1.816079020500e-08 1.900000000000e+01
    4.680000000000e+05 4.000000000000e+00
15 19 11 15 12  0  0.0-2.725031226873e-04 2.728484105319e-12 0.000000000000e+00
    1.000000000000e+01-1.690625000000e+01 5.586661278295e-09-1.865834486581e+00
   -8.810311555862e-07 1.200056320522e-02 5.282461643219e-06 5.153584903717e+03
    4.752000000000e+05 1.490116119385e-07 2.284894461151e+00-9.872019290924e-08
    9.278571318082e-01 2.577187500000e+02 8.376454955485e-01-8.334275727466e-09
   -2.096515899731e-10 1.000000000000e+00 2.079000000000e+03 0.000000000000e+00
    2.400000000000e+00 0.000000000000e+00-1.117587089539e-08 1.000000000000e+01
    4.680000000000e+05 4.000000000000e+00
11 19 11 15 12  0  0.0-4.474981687963e-04 1.114131009672e-11 0.000000000000e+00
    1.300000000000e+01-1.240625000000e+02 5.475585222960e-09 2.308659167435e+00
   -6.467103958130e-06 1.639095996507e-02 5.636364221573e-06 5.153747829437e+03
    4.752000000000e+05 2.197921276093e-07-1.657364615317e-01-1.303851604462e-08
    9.114697063490e-01 2.431250000000e+02 1.968911188277e+00-8.322846679971e-09
   -2.110802209099e-10 1.000000000000e+00 2.079000000000e+03 0.000000000000e+00
    2.400000000000e+00 0.000000000000e+00-1.210719347000e-08 1.300000000000e+01
    4.680000000000e+05 4.000000000000e+00
 9 19 11 15 12  0  0.0-8.392147719860e-05-9.777068044059e-12 0.000000000000e+00
    8.100000000000e+01-1.262500000000e+01 5.071639825584e-09-4.802527757472e-01
   -7.059425115585e-07 1.625447068363e-03 6.036832928658e-06 5.153553413391e+03
    4.752000000000e+05-3.725290298462e-09 2.369331775424e+00-1.117587089539e-08
    9.524142115777e-01 2.579062500000e+02 1.672368407005e+00-8.246057767119e-09
   -3.785871982478e-10 1.000000000000e+00 2.079000000000e+03 0.000000000000e+00
    2.400000000000e+00 0.000000000000e+00 1.396983861923e-09 8.100000000000e+01
    4.680000000000e+05 4.000000000000e+00
10 19 11 15 12  0  0.0-1.354101113975e-04-1.477928890381e-11 0.000000000000e+00
    7.300000000000e+01 4.718750000000e+00 4.727339769819e-09 1.140245585680e+00
    4.023313522339e-07 5.043699289672e-03 8.031725883484e-06 5.153660266876e+03
    4.752000000000e+05 1.098960638046e-07 1.334197339429e+00 5.960464477539e-08
    9.637139810013e-01 2.262812500000e+02-2.741349167305e+00-8.061407218540e-09
    4.150172871358e-10 1.000000000000e+00 2.079000000000e+03 0.000000000000e+00
    2.400000000000e+00 0.000000000000e+00 1.862645149231e-09 7.300000000000e+01
    4.680000000000e+05 4.000000000000e+00
 8 19 11 15 12  0  0.0-1.344271004200e-05-1.250555214938e-12 0.000000000000e+00
    6.100000000000e+01-5.950000000000e+01 4.484829668300e-09-7.555304276749e-01
   -3.229826688766e-06 4.679372301325e-03 1.765787601471e-06 5.153583105087e+03
    4.752000000000e+05 4.656612873077e-08-7.717204937819e-01-9.499490261078e-08
    9.701711960731e-01 3.475625000000e+02-2.378665663830e-01-8.329275519187e-09
   -6.071681481333e-11 1.000000000000e+00 2.079000000000e+03 0.000000000000e+00
    2.400000000000e+00 0.000000000000e+00 5.122274160385e-09 6.100000000000e+01
    4.680000000000e+05 4.000000000000e+00
 6 19 11 15 12  0  0.0-1.243287697434e-04-1.193711796077e-11 0.000000000000e+00
    5.400000000000e+01-9.950000000000e+01 4.002666727136e-09-2.782164880152e+00
   -5.079433321953e-06 1.541792647913e-03 1.025013625622e-05 5.153699451447e+03
    4.752000000000e+05 1.117587089539e-08 2.877002929006e-01 5.215406417847e-08
    9.777016078478e-01 1.903750000000e+02-1.201595230693e+00-7.644961300467e-09
    1.242908915002e-10 1.000000000000e+00 2.079000000000e+03 0.000000000000e+00
    2.400000000000e+00 0.000000000000e+00 4.656612873077e-09 5.400000000000e+01
    4.680000000000e+05 4.000000000000e+00
24 19 11 15 12  0  0.0-4.925765097141e-06-5.684341886081e-13 0.000000000000e+00
    2.900000000000e+01 5.853125000000e+01 4.595905723635e-09-2.901071789125e+00
    2.944841980934e-06 9.061241289601e-03 1.140125095844e-05 5.153677715302e+03
    4.752000000000e+05 0.000000000000e+00-2.907945583286e+00-1.341104507446e-07
    9.380079560936e-01 1.467187500000e+02 6.226308930644e-01-7.840326581072e-09
   -4.057311860468e-10 1.000000000000e+00 2.079000000000e+03 0.000000000000e+00
    3.400000000000e+00 0.000000000000e+00 2.793967723846e-09 2.900000000000e+01
    4.680000000000e+05 4.000000000000e+00
13 19 11 15 12  0  0.0-3.269268199801e-05 2.273736754432e-12 0.000000000000e+00
    4.900000000000e+01-1.600000000000e+01 4.558047003810e-09-1.853747101082e+00
   -8.270144462585e-07 4.040270927362e-03 7.044523954391e-06 5.153658771515e+03
    4.752000000000e+05 9.685754776001e-08 2.509199340990e+00 5.587935447693e-09
    9.678497747594e-01 2.485312500000e+02 1.189186114398e+00-7.857112994580e-09
   -5.143071372424e-10 1.000000000000e+00 2.079000000000e+03 0.000000000000e+00
    2.400000000000e+00 0.000000000000e+00-1.117587089539e-08 4.900000000000e+01
    4.680000000000e+05 4.000000000000e+00
27 19 11 15 12  0  0.0-1.205629669130e-04-1.193711796077e-11 0.000000000000e+00
    1.030000000000e+02-6.018750000000e+01 4.345895309698e-09-9.676831118172e-01
   -3.106892108917e-06 7.342820055783e-03 1.870095729828e-06 5.153654138565e+03
    4.752000000000e+05 2.104789018631e-07-7.589932235257e-01 2.607703208923e-08
    9.785307356872e-01 3.503750000000e+02 5.018210699933e-01-8.244986293917e-09
   -9.678974596714e-11 1.000000000000e+00 2.079000000000e+03 0.000000000000e+00
    2.400000000000e+00 0.000000000000e+00 1.862645149231e-09 1.030000000000e+02
    4.680000000000e+05 4.000000000000e+00
14 19 11 15 12  0  0.0-5.036825314164e-05 2.160049916711e-12 0.000000000000e+00
    1.050000000000e+02-1.350000000000e+01 4.855202238662e-09-1.283633637271e+00
   -6.668269634247e-07 1.075356325600e-02 6.554648280144e-06 5.153753417969e+03
    4.752000000000e+05 1.266598701477e-07 2.463609712445e+00 2.644956111908e-07
    9.603879738426e-01 2.543437500000e+02-1.934526374068e+00-8.103194673441e-09
   -4.928776731906e-10 1.000000000000e+00 2.079000000000e+03 0.000000000000e+00
    2.400000000000e+00 0.000000000000e+00-9.778887033463e-09 1.050000000000e+02
    4.680000000000e+05 4.000000000000e+00
